[{"OBJECT_NAME":"STARLINK-31889","OBJECT_ID":"2024-097N","EPOCH":"2026-03-09T19:57:55.225152","MEAN_MOTION":15.2757221,"ECCENTRICITY":0.0001549,"INCLINATION":43.0011,"RA_OF_ASC_NODE":273.9797,"ARG_OF_PERICENTER":270.9288,"MEAN_ANOMALY":89.1386,"EPHEMERIS_TYPE":0,"CLASSIFICATION_TYPE":"U","NORAD_CAT_ID":59847,"ELEMENT_SET_NO":999,"REV_AT_EPOCH":10193,"BSTAR":5.134685e-6,"MEAN_MOTION_DOT":-1.21e-6,"MEAN_MOTION_DDOT":0},{"OBJECT_NAME":"GEOSCAN 5 (RS92S5)","OBJECT_ID":"2025-155R","EPOCH":"2026-03-09T22:01:07.273920","MEAN_MOTION":15.30265233,"ECCENTRICITY":0.00070849,"INCLINATION":97.4462,"RA_OF_ASC_NODE":37.7456,"ARG_OF_PERICENTER":154.5846,"MEAN_ANOMALY":205.5745,"EPHEMERIS_TYPE":0,"CLASSIFICATION_TYPE":"U","NORAD_CAT_ID":64891,"ELEMENT_SET_NO":999,"REV_AT_EPOCH":6562,"BSTAR":0.00068639307,"MEAN_MOTION_DOT":0.00020065,"MEAN_MOTION_DDOT":0}]
